NORAD_CAT_ID,OBJECT_NAME,OBJECT_TYPE,EPOCH,MEAN_MOTION,ECCENTRICITY,INCLINATION,RA_OF_ASC_NODE,ARG_OF_PERICENTER,MEAN_ANOMALY,BSTAR,MEAN_MOTION_DOT,MEAN_MOTION_DDOT,TLE_LINE0,TLE_LINE1,TLE_LINE2,SEMIMAJOR_AXIS,PERIOD,APOGEE,PERIGEE,DECAYED
52378.0,STARLINK-3806,PAYLOAD,2024-06-12 16:39:33,15.08847,0.0001212,53.2148,159.7273,80.8765,279.2364,0.00036228,5.484e-05,0.0,0 STARLINK-3806,1 52378U 22045AZ  24164.69413420  .00005484  00000-0  36228-3 0  9999,2 52378  53.2148 159.7273 0001212  80.8765 279.2364 15.08847000120069,6917.859,95.437,540.562,538.886,0.0
52378.0,STARLINK-3806,PAYLOAD,2024-06-13 08:33:23,15.08857117,0.0001276,53.2149,156.7535,76.2495,283.8639,0.00035155,5.314e-05,0.0,0 STARLINK-3806,1 52378U 22045AZ  24165.35652719  .00005314  00000-0  35155-3 0  9999,2 52378  53.2149 156.7535 0001276  76.2495 283.8639 15.08857117120164,6917.828,95.436,540.576,538.81,0.0
52378.0,STARLINK-3806,PAYLOAD,2024-06-13 16:30:19,15.08852069,0.0001248,53.2147,155.2671,80.8997,279.2137,0.00016975,2.416e-05,0.0,0 STARLINK-3806,1 52378U 22045AZ  24165.68772611  .00002416  00000-0  16975-3 0  9998,2 52378  53.2147 155.2671 0001248  80.8997 279.2137 15.08852069120213,6917.843,95.437,540.572,538.845,0.0
52378.0,STARLINK-3806,PAYLOAD,2024-06-14 06:48:47,15.08848022,0.0001307,53.2151,152.5907,80.9025,279.2114,5.5374e-05,5.94e-06,0.0,0 STARLINK-3806,1 52378U 22045AZ  24166.28388471  .00000594  00000-0  55374-4 0  9994,2 52378  53.2151 152.5907 0001307  80.9025 279.2114 15.08848022120308,6917.856,95.437,540.625,538.817,0.0
52378.0,STARLINK-3806,PAYLOAD,2024-06-14 22:42:38,15.08850591,0.0001384,53.2158,149.6175,80.5954,279.5194,6.0445e-05,6.74e-06,0.0,0 STARLINK-3806,1 52378U 22045AZ  24166.94628175  .00000674  00000-0  60445-4 0  9999,2 52378  53.2158 149.6175 0001384  80.5954 279.5194 15.08850591120407,6917.848,95.437,540.67,538.756,0.0
52378.0,STARLINK-3806,PAYLOAD,2024-06-15 05:04:11,15.08850506,0.0001325,53.2153,148.428,82.1347,277.9795,8.6999e-05,1.097e-05,0.0,0 STARLINK-3806,1 52378U 22045AZ  24167.21124037  .00001097  00000-0  86999-4 0  9990,2 52378  53.2153 148.4280 0001325  82.1347 277.9795 15.08850506120444,6917.848,95.437,540.63,538.797,0.0
52378.0,STARLINK-3806,PAYLOAD,2024-06-15 16:11:53,15.08848635,0.0001292,53.2151,146.3464,81.9473,278.1666,9.1204e-05,1.164e-05,0.0,0 STARLINK-3806,1 52378U 22045AZ  24167.67491949  .00001164  00000-0  91204-4 0  9999,2 52378  53.2151 146.3464 0001292  81.9473 278.1666 15.08848635120511,6917.854,95.437,540.613,538.825,0.0
52378.0,STARLINK-3806,PAYLOAD,2024-06-16 08:05:44,15.08847027,0.0001356,53.2165,143.3713,93.4088,266.7059,9.5183e-05,1.228e-05,0.0,0 STARLINK-3806,1 52378U 22045AZ  24168.33731852  .00001228  00000-0  95183-4 0  9994,2 52378  53.2165 143.3713 0001356  93.4088 266.7059 15.08847027120615,6917.859,95.437,540.662,538.786,0.0
52378.0,STARLINK-3806,PAYLOAD,2024-06-17 07:56:31,15.08840652,0.0001504,53.2171,138.9097,100.9255,259.1907,4.1977e-05,3.8e-06,0.0,0 STARLINK-3806,1 52378U 22045AZ  24169.33092323  .00000380  00000-0  41977-4 0  9998,2 52378  53.2171 138.9097 0001504 100.9255 259.1907 15.08840652120763,6917.878,95.438,540.784,538.703,0.0
52378.0,STARLINK-3806,PAYLOAD,2024-06-18 07:47:19,15.08837951,0.0001365,53.2162,134.4507,92.608,267.5069,2.1752e-05,5.8e-07,0.0,0 STARLINK-3806,1 52378U 22045AZ  24170.32452578  .00000058  00000-0  21752-4 0  9992,2 52378  53.2162 134.4507 0001365  92.6080 267.5069 15.08837951120915,6917.887,95.438,540.696,538.807,0.0
52378.0,STARLINK-3806,PAYLOAD,2024-06-19 13:59:38,15.08835503,0.0001299,53.2166,128.8008,88.7928,271.3213,6.2712e-05,7.1e-06,0.0,0 STARLINK-3806,1 52378U 22045AZ  24171.58308997  .00000710  00000-0  62712-4 0  9992,2 52378  53.2166 128.8008 0001299  88.7928 271.3213 15.08835503121102,6917.894,95.438,540.658,538.861,0.0
52378.0,STARLINK-3806,PAYLOAD,2024-06-20 05:53:30,15.08839302,0.0001358,53.2166,125.8285,94.556,265.5587,5.9685e-05,6.62e-06,0.0,0 STARLINK-3806,1 52378U 22045AZ  24172.24549005  .00000662  00000-0  59685-4 0  9994,2 52378  53.2166 125.8285 0001358  94.5560 265.5587 15.08839302121200,6917.883,95.438,540.687,538.808,0.0
52378.0,STARLINK-3806,PAYLOAD,2024-06-20 21:47:20,15.08858802,0.0001311,53.2166,122.8548,87.0922,273.022,0.00019187,2.769e-05,0.0,0 STARLINK-3806,1 52378U 22045AZ  24172.90787046  .00002769  00000-0  19187-3 0  9998,2 52378  53.2166 122.8548 0001311  87.0922 273.0220 15.08858802121302,6917.823,95.436,540.595,538.781,0.0
52378.0,STARLINK-3806,PAYLOAD,2024-06-20 23:22:42,15.08863669,0.0001306,53.217,122.5571,86.8015,273.3127,0.00022786,3.343e-05,0.0,0 STARLINK-3806,1 52378U 22045AZ  24172.97410599  .00003343  00000-0  22786-3 0  9999,2 52378  53.2170 122.5571 0001306  86.8015 273.3127 15.08863669121311,6917.808,95.436,540.577,538.77,0.0
52378.0,STARLINK-3806,PAYLOAD,2024-06-21 05:44:14,15.08872053,0.0001324,53.2169,121.3677,89.7573,270.3571,0.00031267,4.696e-05,0.0,0 STARLINK-3806,1 52378U 22045AZ  24173.23905742  .00004696  00000-0  31267-3 0  9994,2 52378  53.2169 121.3677 0001324  89.7573 270.3571 15.08872053121355,6917.782,95.436,540.563,538.732,0.0
52378.0,STARLINK-3806,PAYLOAD,2024-06-21 20:02:45,15.08837202,0.0001638,53.2171,118.692,84.8779,275.24,5.398e-05,5.71e-06,0.0,0 STARLINK-3806,1 52378U 22045AZ  24173.83524737  .00000571  00000-0  53980-4 0  9996,2 52378  53.2171 118.6920 0001638  84.8779 275.2400 15.08837202121442,6917.889,95.438,540.887,538.621,0.0
52378.0,STARLINK-3806,PAYLOAD,2024-06-22 05:35:03,15.08835857,0.0001425,53.2165,116.9068,84.7814,275.3341,-0.00012192,-2.228e-05,0.0,0 STARLINK-3806,1 52378U 22045AZ  24174.23268372 -.00002228  00000-0 -12192-3 0  9993,2 52378  53.2165 116.9068 0001425  84.7814 275.3341 15.08835857121508,6917.893,95.438,540.744,538.772,0.0
52378.0,STARLINK-3806,PAYLOAD,2024-06-23 02:15:04,15.08837479,0.000163,53.2162,113.0409,71.6305,288.4865,6.1922e-05,6.98e-06,0.0,0 STARLINK-3806,1 52378U 22045AZ  24175.09380607  .00000698  00000-0  61922-4 0  9997,2 52378  53.2162 113.0409 0001630  71.6305 288.4865 15.08837479121632,6917.888,95.438,540.881,538.625,0.0
52378.0,STARLINK-3806,PAYLOAD,2024-06-23 05:25:51,15.08840539,0.0001592,53.2165,112.446,87.9882,272.1293,0.00016168,2.286e-05,0.0,0 STARLINK-3806,1 52378U 22045AZ  24175.22628484  .00002286  00000-0  16168-3 0  9996,2 52378  53.2165 112.4460 0001592  87.9882 272.1293 15.08840539121650,6917.879,95.438,540.845,538.642,0.0
52378.0,STARLINK-3806,PAYLOAD,2024-06-23 22:55:06,15.08840015,0.0001598,53.216,109.1739,78.5295,281.5877,0.00038428,5.833e-05,0.0,0 STARLINK-3806,1 52378U 22045AZ  24175.95493091  .00005833  00000-0  38428-3 0  9994,2 52378  53.2160 109.1739 0001598  78.5295 281.5877 15.08840015121760,6917.88,95.438,540.851,538.64,0.0
52378.0,STARLINK-3806,PAYLOAD,2024-06-24 02:05:52,15.08845107,0.0001676,53.2164,108.5794,76.4715,283.6464,0.00045746,7.001e-05,0.0,0 STARLINK-3806,1 52378U 22045AZ  24176.08740992  .00007001  00000-0  45746-3 0  9994,2 52378  53.2164 108.5794 0001676  76.4715 283.6464 15.08845107121783,6917.865,95.437,540.889,538.57,0.0
52378.0,STARLINK-3806,PAYLOAD,2024-06-24 22:45:53,15.08838858,0.0001871,53.2168,104.7115,115.7977,244.3208,0.00013925,1.929e-05,0.0,0 STARLINK-3806,1 52378U 22045AZ  24176.94853214  .00001929  00000-0  13925-3 0  9998,2 52378  53.2168 104.7115 0001871 115.7977 244.3208 15.08838858121916,6917.884,95.438,541.043,538.455,0.0
52378.0,STARLINK-3806,PAYLOAD,2024-06-25 00:21:16,15.08838512,0.0001873,53.2171,104.4146,118.2044,241.9137,0.00012255,1.663e-05,0.0,0 STARLINK-3806,1 52378U 22045AZ  24177.01477212  .00001663  00000-0  12255-3 0  9997,2 52378  53.2171 104.4146 0001873 118.2044 241.9137 15.08838512121928,6917.885,95.438,541.046,538.454,0.0
52378.0,STARLINK-3806,PAYLOAD,2024-06-25 22:36:39,15.08848286,0.0002143,53.2176,100.2541,128.045,232.0736,0.00017328,2.471e-05,0.0,0 STARLINK-3806,1 52378U 22045AZ  24177.94212937  .00002471  00000-0  17328-3 0  9994,2 52378  53.2176 100.2541 0002143 128.0450 232.0736 15.08848286122068,6917.855,95.437,541.203,538.238,0.0
52378.0,STARLINK-3806,PAYLOAD,2024-06-26 00:12:03,15.08847851,0.0001872,53.2173,99.9545,120.585,239.5327,0.00028892,4.314e-05,0.0,0 STARLINK-3806,1 52378U 22045AZ  24178.00837030  .00004314  00000-0  28892-3 0  9995,2 52378  53.2173  99.9545 0001872 120.5850 239.5327 15.08847851122078,6917.856,95.437,541.016,538.426,0.0
52378.0,STARLINK-3806,PAYLOAD,2024-06-26 22:27:27,15.08838612,0.0001281,53.2155,95.7923,84.6576,275.4562,4.215e-05,3.83e-06,0.0,0 STARLINK-3806,1 52378U 22045AZ  24178.93573530  .00000383  00000-0  42150-4 0  9995,2 52378  53.2155  95.7923 0001281  84.6576 275.4562 15.08838612122212,6917.885,95.438,540.636,538.863,0.0
52378.0,STARLINK-3806,PAYLOAD,2024-06-27 00:02:50,15.08837297,0.0001271,53.2159,95.4974,85.4067,274.7071,1.6915e-05,-1.9e-07,0.0,0 STARLINK-3806,1 52378U 22045AZ  24179.00197618 -.00000019  00000-0  16915-4 0  9990,2 52378  53.2159  95.4974 0001271  85.4067 274.7071 15.08837297122228,6917.889,95.438,540.633,538.874,0.0
52378.0,STARLINK-3806,PAYLOAD,2024-06-27 22:18:14,15.08840778,0.0001123,53.2159,91.3374,103.9454,256.1663,-0.00012804,-2.325e-05,0.0,0 STARLINK-3806,1 52378U 22045AZ  24179.92933759 -.00002325  00000-0 -12804-3 0  9990,2 52378  53.2159  91.3374 0001123 103.9454 256.1663 15.08840778122363,6917.878,95.438,540.52,538.966,0.0
52378.0,STARLINK-3806,PAYLOAD,2024-06-28 01:29:00,15.08848102,0.0001292,53.2157,90.7402,112.3034,247.8095,0.00011492,1.542e-05,0.0,0 STARLINK-3806,1 52378U 22045AZ  24180.06181144  .00001542  00000-0  11492-3 0  9990,2 52378  53.2157  90.7402 0001292 112.3034 247.8095 15.08848102122388,6917.856,95.437,540.614,538.827,0.0
52378.0,STARLINK-3806,PAYLOAD,2024-06-28 11:01:19,15.08845751,0.0001089,53.2153,88.9535,78.9221,281.1894,0.00019891,2.88e-05,0.0,0 STARLINK-3806,1 52378U 22045AZ  24180.45925469  .00002880  00000-0  19891-3 0  9996,2 52378  53.2153  88.9535 0001089  78.9221 281.1894 15.08845751122441,6917.863,95.437,540.481,538.974,0.0
